{
  "norad_id": 65878,
  "name": "STARLINK-35453",
  "history": [
    {
      "epoch": "2026-03-28T17:01:02.020224",
      "apogee_km": 476.06259644242255,
      "perigee_km": 474.2159126228762,
      "latitude_deg": -33.11751460528422,
      "longitude_deg": 115.86891136015765,
      "semi_major_axis_km": 6853.276254532649,
      "eccentricity": 0.00013473,
      "inclination_deg": 53.1597,
      "raan_deg": 206.1094,
      "arg_perigee_deg": 85.2271,
      "mean_anomaly_deg": 274.8884,
      "mean_motion_rev_day": 15.30225392
    },
    {
      "epoch": "2026-03-29T00:51:18.271296",
      "apogee_km": 476.88927853731457,
      "perigee_km": 473.45028919317156,
      "latitude_deg": 19.98449065677329,
      "longitude_deg": 147.22030143998563,
      "semi_major_axis_km": 6853.306783865243,
      "eccentricity": 0.0002509,
      "inclination_deg": 53.1595,
      "raan_deg": 204.5933,
      "arg_perigee_deg": 78.6072,
      "mean_anomaly_deg": 281.521,
      "mean_motion_rev_day": 15.30215167
    }
  ]
}